STARLINK-2600_new
1 18387C 21038AL  21326.13317035  .00009027  00000-0  60468-3 0  3260
2 18387  53.0539 188.1465 0002149  69.0264 145.9612 15.06398817    10
STARLINK-2600_old
1 28387C 21038AL  21325.13784567  .00008826  00000-0  59133-3 0  3259
2 28387  53.0537 192.6148 0002070  68.1476 146.1700 15.06390256    14
